HIMAWARI-8              
1 40267U 14060A   24020.58406815 -.00000272  00000+0  00000+0 0  9995
2 40267   0.0355 191.6159 0001183 100.8233 177.9126  1.00270136 33959
